[{"OBJECT_NAME":"STARLINK-1225","OBJECT_ID":"2020-012K","EPOCH":"2026-01-21T00:00:02.999808","MEAN_MOTION":15.12806981,"ECCENTRICITY":0.00011001,"INCLINATION":53.0808,"RA_OF_ASC_NODE":260.6338,"ARG_OF_PERICENTER":88.8776,"MEAN_ANOMALY":233.82,"EPHEMERIS_TYPE":0,"CLASSIFICATION_TYPE":"U","NORAD_CAT_ID":45187,"ELEMENT_SET_NO":999,"REV_AT_EPOCH":579,"BSTAR":0.071779431,"MEAN_MOTION_DOT":0.01390287,"MEAN_MOTION_DDOT":0},{"OBJECT_NAME":"STARLINK-1230","OBJECT_ID":"2020-012M","EPOCH":"2026-01-21T00:00:02.999808","MEAN_MOTION":15.12512791,"ECCENTRICITY":0.00014502,"INCLINATION":53.0785,"RA_OF_ASC_NODE":260.638,"ARG_OF_PERICENTER":99.4508,"MEAN_ANOMALY":201.9517,"EPHEMERIS_TYPE":0,"CLASSIFICATION_TYPE":"U","NORAD_CAT_ID":45189,"ELEMENT_SET_NO":999,"REV_AT_EPOCH":579,"BSTAR":0.069251039,"MEAN_MOTION_DOT":0.01324848,"MEAN_MOTION_DDOT":0},{"OBJECT_NAME":"STARLINK-1234","OBJECT_ID":"2020-012N","EPOCH":"2026-01-21T00:00:02.999808","MEAN_MOTION":15.51549022,"ECCENTRICITY":0.0012688,"INCLINATION":53.0471,"RA_OF_ASC_NODE":196.4787,"ARG_OF_PERICENTER":147.3363,"MEAN_ANOMALY":131.9536,"EPHEMERIS_TYPE":0,"CLASSIFICATION_TYPE":"U","NORAD_CAT_ID":45190,"ELEMENT_SET_NO":999,"REV_AT_EPOCH":591,"BSTAR":0.0016552522,"MEAN_MOTION_DOT":0.00100813,"MEAN_MOTION_DDOT":0},{"OBJECT_NAME":"STARLINK-1269","OBJECT_ID":"2020-012V","EPOCH":"2026-01-21T00:00:02.999808","MEAN_MOTION":15.14462566,"ECCENTRICITY":0.00014641,"INCLINATION":53.0878,"RA_OF_ASC_NODE":260.5711,"ARG_OF_PERICENTER":103.6005,"MEAN_ANOMALY":174.2392,"EPHEMERIS_TYPE":0,"CLASSIFICATION_TYPE":"U","NORAD_CAT_ID":45197,"ELEMENT_SET_NO":999,"REV_AT_EPOCH":579,"BSTAR":0.0594465,"MEAN_MOTION_DOT":0.0120816,"MEAN_MOTION_DDOT":0},{"OBJECT_NAME":"STARLINK-1154","OBJECT_ID":"2020-012W","EPOCH":"2026-01-20T20:40:12.882144","MEAN_MOTION":15.38379347,"ECCENTRICITY":0.00010871,"INCLINATION":53.0519,"RA_OF_ASC_NODE":236.8433,"ARG_OF_PERICENTER":122.6698,"MEAN_ANOMALY":237.441,"EPHEMERIS_TYPE":0,"CLASSIFICATION_TYPE":"U","NORAD_CAT_ID":45198,"ELEMENT_SET_NO":999,"REV_AT_EPOCH":32791,"BSTAR":0.0033793962,"MEAN_MOTION_DOT":0.00131678,"MEAN_MOTION_DDOT":0},{"OBJECT_NAME":"STARLINK-1199","OBJECT_ID":"2020-012Z","EPOCH":"2026-01-20T19:58:01.043328","MEAN_MOTION":15.06412246,"ECCENTRICITY":0.00014043,"INCLINATION":53.0533,"RA_OF_ASC_NODE":241.4607,"ARG_OF_PERICENTER":87.3478,"MEAN_ANOMALY":272.7672,"EPHEMERIS_TYPE":0,"CLASSIFICATION_TYPE":"U","NORAD_CAT_ID":45201,"ELEMENT_SET_NO":999,"REV_AT_EPOCH":32790,"BSTAR":0.00021972974,"MEAN_MOTION_DOT":2.994e-5,"MEAN_MOTION_DDOT":0},{"OBJECT_NAME":"STARLINK-1209","OBJECT_ID":"2020-012AE","EPOCH":"2026-01-20T18:59:09.807072","MEAN_MOTION":15.42775101,"ECCENTRICITY":0.00149516,"INCLINATION":53.0491,"RA_OF_ASC_NODE":202.1207,"ARG_OF_PERICENTER":138.4785,"MEAN_ANOMALY":221.7359,"EPHEMERIS_TYPE":0,"CLASSIFICATION_TYPE":"U","NORAD_CAT_ID":45206,"ELEMENT_SET_NO":999,"REV_AT_EPOCH":32750,"BSTAR":0.0017765545,"MEAN_MOTION_DOT":0.0007963,"MEAN_MOTION_DDOT":0},{"OBJECT_NAME":"STARLINK-1210","OBJECT_ID":"2020-012AF","EPOCH":"2026-01-21T00:00:02.999808","MEAN_MOTION":15.82925638,"ECCENTRICITY":0.00067907,"INCLINATION":53.0151,"RA_OF_ASC_NODE":144.2008,"ARG_OF_PERICENTER":313.1455,"MEAN_ANOMALY":358.0227,"EPHEMERIS_TYPE":0,"CLASSIFICATION_TYPE":"U","NORAD_CAT_ID":45207,"ELEMENT_SET_NO":999,"REV_AT_EPOCH":594,"BSTAR":0.0011605653,"MEAN_MOTION_DOT":0.00259318,"MEAN_MOTION_DDOT":0},{"OBJECT_NAME":"STARLINK-1231","OBJECT_ID":"2020-012AL","EPOCH":"2026-01-20T23:32:35.350080","MEAN_MOTION":15.17365659,"ECCENTRICITY":0.00023457,"INCLINATION":53.0462,"RA_OF_ASC_NODE":234.2281,"ARG_OF_PERICENTER":129.9134,"MEAN_ANOMALY":230.2066,"EPHEMERIS_TYPE":0,"CLASSIFICATION_TYPE":"U","NORAD_CAT_ID":45212,"ELEMENT_SET_NO":999,"REV_AT_EPOCH":32797,"BSTAR":0.00085691869,"MEAN_MOTION_DOT":0.00017046,"MEAN_MOTION_DDOT":0},{"OBJECT_NAME":"STARLINK-1271","OBJECT_ID":"2020-012AR","EPOCH":"2026-01-20T19:36:47.603232","MEAN_MOTION":15.06411951,"ECCENTRICITY":0.00014533,"INCLINATION":53.054,"RA_OF_ASC_NODE":241.5259,"ARG_OF_PERICENTER":91.3517,"MEAN_ANOMALY":268.7638,"EPHEMERIS_TYPE":0,"CLASSIFICATION_TYPE":"U","NORAD_CAT_ID":45217,"ELEMENT_SET_NO":999,"REV_AT_EPOCH":32790,"BSTAR":0.00031900403,"MEAN_MOTION_DOT":4.475e-5,"MEAN_MOTION_DDOT":0},{"OBJECT_NAME":"STARLINK-1191","OBJECT_ID":"2020-012AW","EPOCH":"2026-01-21T00:00:02.999808","MEAN_MOTION":15.20476677,"ECCENTRICITY":0.00014435,"INCLINATION":53.1131,"RA_OF_ASC_NODE":220.3414,"ARG_OF_PERICENTER":86.0131,"MEAN_ANOMALY":337.7937,"EPHEMERIS_TYPE":0,"CLASSIFICATION_TYPE":"U","NORAD_CAT_ID":45222,"ELEMENT_SET_NO":999,"REV_AT_EPOCH":574,"BSTAR":0.042278658,"MEAN_MOTION_DOT":0.0100479,"MEAN_MOTION_DDOT":0},{"OBJECT_NAME":"STARLINK-1212","OBJECT_ID":"2020-012AX","EPOCH":"2026-01-20T23:40:46.494336","MEAN_MOTION":15.4034652,"ECCENTRICITY":0.00024254,"INCLINATION":53.0531,"RA_OF_ASC_NODE":217.3011,"ARG_OF_PERICENTER":120.861,"MEAN_ANOMALY":239.2633,"EPHEMERIS_TYPE":0,"CLASSIFICATION_TYPE":"U","NORAD_CAT_ID":45223,"ELEMENT_SET_NO":999,"REV_AT_EPOCH":32826,"BSTAR":0.0020236624,"MEAN_MOTION_DOT":0.00083425,"MEAN_MOTION_DDOT":0},{"OBJECT_NAME":"STARLINK-1215","OBJECT_ID":"2020-012AZ","EPOCH":"2026-01-21T00:00:02.999808","MEAN_MOTION":15.29219171,"ECCENTRICITY":0.00010189,"INCLINATION":53.1526,"RA_OF_ASC_NODE":219.7444,"ARG_OF_PERICENTER":84.1031,"MEAN_ANOMALY":88.8188,"EPHEMERIS_TYPE":0,"CLASSIFICATION_TYPE":"U","NORAD_CAT_ID":45225,"ELEMENT_SET_NO":999,"REV_AT_EPOCH":585,"BSTAR":0.0048015106,"MEAN_MOTION_DOT":0.00140248,"MEAN_MOTION_DDOT":0},{"OBJECT_NAME":"STARLINK-1221","OBJECT_ID":"2020-012BB","EPOCH":"2026-01-20T14:13:53.344992","MEAN_MOTION":15.39876595,"ECCENTRICITY":0.00031576,"INCLINATION":53.0676,"RA_OF_ASC_NODE":137.1989,"ARG_OF_PERICENTER":198.1999,"MEAN_ANOMALY":161.8893,"EPHEMERIS_TYPE":0,"CLASSIFICATION_TYPE":"U","NORAD_CAT_ID":45227,"ELEMENT_SET_NO":999,"REV_AT_EPOCH":32929,"BSTAR":0.0010190321,"MEAN_MOTION_DOT":0.00040933,"MEAN_MOTION_DDOT":0},{"OBJECT_NAME":"STARLINK-1222","OBJECT_ID":"2020-012BC","EPOCH":"2026-01-21T00:00:02.999808","MEAN_MOTION":15.45781176,"ECCENTRICITY":0.00012003,"INCLINATION":53.0543,"RA_OF_ASC_NODE":210.8184,"ARG_OF_PERICENTER":116.6875,"MEAN_ANOMALY":87.6293,"EPHEMERIS_TYPE":0,"CLASSIFICATION_TYPE":"U","NORAD_CAT_ID":45228,"ELEMENT_SET_NO":999,"REV_AT_EPOCH":584,"BSTAR":0.0019403437,"MEAN_MOTION_DOT":0.00096233,"MEAN_MOTION_DDOT":0},{"OBJECT_NAME":"STARLINK-1226","OBJECT_ID":"2020-012BD","EPOCH":"2026-01-21T00:00:02.999808","MEAN_MOTION":15.22467406,"ECCENTRICITY":0.00015685,"INCLINATION":53.1222,"RA_OF_ASC_NODE":220.2216,"ARG_OF_PERICENTER":73.8833,"MEAN_ANOMALY":215.7235,"EPHEMERIS_TYPE":0,"CLASSIFICATION_TYPE":"U","NORAD_CAT_ID":45229,"ELEMENT_SET_NO":999,"REV_AT_EPOCH":585,"BSTAR":0.064385691,"MEAN_MOTION_DOT":0.0167181,"MEAN_MOTION_DDOT":0}]
