STARLINK-1225           
1 45187U 20012K   26021.00003472  .01390287  00000+0  71779-1 0  9998
2 45187  53.0808 260.6338 0001100  88.8776 233.8200 15.12806981  5795
STARLINK-1230           
1 45189U 20012M   26021.00003472  .01324848  00000+0  69251-1 0  9992
2 45189  53.0785 260.6380 0001450  99.4508 201.9517 15.12512791  5797
STARLINK-1234           
1 45190U 20012N   26021.00003472  .00100813  00000+0  16553-2 0  9995
2 45190  53.0471 196.4787 0012688 147.3363 131.9536 15.51549022  5912
STARLINK-1269           
1 45197U 20012V   26021.00003472  .01208160  00000+0  59447-1 0  9995
2 45197  53.0878 260.5711 0001464 103.6005 174.2392 15.14462566  5790
STARLINK-1154           
1 45198U 20012W   26020.86126021  .00131678  00000+0  33794-2 0  9991
2 45198  53.0519 236.8433 0001087 122.6698 237.4410 15.38379347327914
STARLINK-1199           
1 45201U 20012Z   26020.83195652  .00002994  00000+0  21973-3 0  9994
2 45201  53.0533 241.4607 0001404  87.3478 272.7672 15.06412246327908
STARLINK-1209           
1 45206U 20012AE  26020.79108573  .00079630  00000+0  17766-2 0  9995
2 45206  53.0491 202.1207 0014951 138.4785 221.7359 15.42775101327500
STARLINK-1210           
1 45207U 20012AF  26021.00003472  .00259318  00000+0  11606-2 0  9993
2 45207  53.0151 144.2008 0006790 313.1455 358.0227 15.82925638  5942
STARLINK-1231           
1 45212U 20012AL  26020.98096470  .00017046  00000+0  85692-3 0  9992
2 45212  53.0462 234.2281 0002345 129.9134 230.2066 15.17365659327976
STARLINK-1271           
1 45217U 20012AR  26020.81721763  .00004475  00000+0  31900-3 0  9994
2 45217  53.0540 241.5259 0001453  91.3517 268.7638 15.06411951327909
STARLINK-1191           
1 45222U 20012AW  26021.00003472  .01004790  00000+0  42279-1 0  9992
2 45222  53.1131 220.3414 0001443  86.0131 337.7937 15.20476677  5748
STARLINK-1212           
1 45223U 20012AX  26020.98664924  .00083425  00000+0  20237-2 0  9996
2 45223  53.0531 217.3011 0002425 120.8610 239.2633 15.40346520328260
STARLINK-1215           
1 45225U 20012AZ  26021.00003472  .00140248  00000+0  48015-2 0  9998
2 45225  53.1526 219.7444 0001018  84.1031  88.8188 15.29219171  5857
STARLINK-1221           
1 45227U 20012BB  26020.59297853  .00040933  00000+0  10190-2 0  9994
2 45227  53.0676 137.1989 0003157 198.1999 161.8893 15.39876595329298
STARLINK-1222           
1 45228U 20012BC  26021.00003472  .00096233  00000+0  19403-2 0  9994
2 45228  53.0543 210.8184 0001200 116.6875  87.6293 15.45781176  5841
STARLINK-1226           
1 45229U 20012BD  26021.00003472  .01671810  00000+0  64386-1 0  9995
2 45229  53.1222 220.2216 0001568  73.8833 215.7235 15.22467406  5856
